MESON-1                 
1 59131U 24043AK  26068.90019075  .00008544  00000+0  29748-3 0  9998
2 59131  97.5469 205.2839 0009545 227.1432 132.9007 15.29893494111890
STARLINK-34001          
1 64272U 25120S   26068.50763906  .00029991  00000+0  10209-2 0  9992
2 64272  53.1591 117.8666 0001397  73.0578 287.0576 15.30192326 43781
