[{"OBJECT_NAME":"MESON-1","OBJECT_ID":"2024-043AK","EPOCH":"2026-03-09T21:36:16.481664","MEAN_MOTION":15.29893494,"ECCENTRICITY":0.00095452,"INCLINATION":97.5469,"RA_OF_ASC_NODE":205.2839,"ARG_OF_PERICENTER":227.1432,"MEAN_ANOMALY":132.9007,"EPHEMERIS_TYPE":0,"CLASSIFICATION_TYPE":"U","NORAD_CAT_ID":59131,"ELEMENT_SET_NO":999,"REV_AT_EPOCH":11189,"BSTAR":0.0002974823,"MEAN_MOTION_DOT":8.544e-5,"MEAN_MOTION_DDOT":0},{"OBJECT_NAME":"STARLINK-34001","OBJECT_ID":"2025-120S","EPOCH":"2026-03-09T12:11:00.014784","MEAN_MOTION":15.30192326,"ECCENTRICITY":0.00013978,"INCLINATION":53.1591,"RA_OF_ASC_NODE":117.8666,"ARG_OF_PERICENTER":73.0578,"MEAN_ANOMALY":287.0576,"EPHEMERIS_TYPE":0,"CLASSIFICATION_TYPE":"U","NORAD_CAT_ID":64272,"ELEMENT_SET_NO":999,"REV_AT_EPOCH":4378,"BSTAR":0.0010208813,"MEAN_MOTION_DOT":0.00029991,"MEAN_MOTION_DDOT":0}]
